{
  "type": "FeatureCollection",
  "features": [
    {
      "type": "Feature",
      "properties": {
        "norad_id": 34492,
        "name": "IRIDIUM 33 DEB",
        "group": "iridium-33-debris",
        "lat": -61.69602609742963,
        "lon": -33.824763898923194,
        "alt_km": 775.5910972865104,
        "timestamp": "2025-12-17T09:00:17.533170+00:00",
        "meta_object_name": "IRIDIUM 33 DEB",
        "meta_object_id": "1997-051GH",
        "meta_epoch": "2025-12-16T23:27:51.526944",
        "meta_mean_motion": 14.25813721,
        "meta_eccentricity": 0.01887461,
        "meta_inclination": 86.471,
        "meta_ra_of_asc_node": 332.9158,
        "meta_arg_of_pericenter": 224.4111,
        "meta_mean_anomaly": 192.488,
        "meta_ephemeris_type": 0,
        "meta_classification_type": "U",
        "meta_norad_cat_id": 34492,
        "meta_element_set_no": 999,
        "meta_rev_at_epoch": 85119,
        "meta_bstar": 0.0027700414,
        "meta_mean_motion_dot": 7.961e-05,
        "meta_mean_motion_ddot": 0,
        "tle_line1": "1 34492U 97051GH  25350.97767971  .00007961  00000+0  27700-2 0  9992",
        "tle_line2": "2 34492  86.4710 332.9158 0188746 224.4111 192.4880 14.25813721851190"
      },
      "geometry": {
        "type": "Point",
        "coordinates": [
          -33.824763898923194,
          -61.69602609742963
        ]
      }
    },
    {
      "type": "Feature",
      "properties": {
        "norad_id": 34497,
        "name": "IRIDIUM 33 DEB",
        "group": "iridium-33-debris",
        "lat": -21.76544420494781,
        "lon": -128.0893322169642,
        "alt_km": 835.7900837597081,
        "timestamp": "2025-12-17T09:00:17.533180+00:00",
        "meta_object_name": "IRIDIUM 33 DEB",
        "meta_object_id": "1997-051GN",
        "meta_epoch": "2025-12-16T03:35:34.476576",
        "meta_mean_motion": 14.27464272,
        "meta_eccentricity": 0.00784657,
        "meta_inclination": 86.2776,
        "meta_ra_of_asc_node": 50.9446,
        "meta_arg_of_pericenter": 328.4277,
        "meta_mean_anomaly": 60.2954,
        "meta_ephemeris_type": 0,
        "meta_classification_type": "U",
        "meta_norad_cat_id": 34497,
        "meta_element_set_no": 999,
        "meta_rev_at_epoch": 86932,
        "meta_bstar": 0.00047338082,
        "meta_mean_motion_dot": 1.218e-05,
        "meta_mean_motion_ddot": 0,
        "tle_line1": "1 34497U 97051GN  25350.14970459  .00001218  00000+0  47338-3 0  9992",
        "tle_line2": "2 34497  86.2776  50.9446 0078465 328.4277  60.2954 14.27464272869329"
      },
      "geometry": {
        "type": "Point",
        "coordinates": [
          -128.0893322169642,
          -21.76544420494781
        ]
      }
    },
    {
      "type": "Feature",
      "properties": {
        "norad_id": 34508,
        "name": "IRIDIUM 33 DEB",
        "group": "iridium-33-debris",
        "lat": -4.01039425881654,
        "lon": -79.06676666477617,
        "alt_km": 724.4158824877368,
        "timestamp": "2025-12-17T09:00:17.533190+00:00",
        "meta_object_name": "IRIDIUM 33 DEB",
        "meta_object_id": "1997-051GZ",
        "meta_epoch": "2025-12-16T18:47:57.463008",
        "meta_mean_motion": 14.38460571,
        "meta_eccentricity": 0.00664067,
        "meta_inclination": 86.3704,
        "meta_ra_of_asc_node": 100.9292,
        "meta_arg_of_pericenter": 159.9314,
        "meta_mean_anomaly": 200.4519,
        "meta_ephemeris_type": 0,
        "meta_classification_type": "U",
        "meta_norad_cat_id": 34508,
        "meta_element_set_no": 999,
        "meta_rev_at_epoch": 87367,
        "meta_bstar": 0.0010003224,
        "meta_mean_motion_dot": 3.151e-05,
        "meta_mean_motion_ddot": 0,
        "tle_line1": "1 34508U 97051GZ  25350.78330397  .00003151  00000+0  10003-2 0  9992",
        "tle_line2": "2 34508  86.3704 100.9292 0066406 159.9314 200.4519 14.38460571873678"
      },
      "geometry": {
        "type": "Point",
        "coordinates": [
          -79.06676666477617,
          -4.01039425881654
        ]
      }
    },
    {
      "type": "Feature",
      "properties": {
        "norad_id": 34521,
        "name": "IRIDIUM 33 DEB",
        "group": "iridium-33-debris",
        "lat": 56.67115234368589,
        "lon": 34.03238642647183,
        "alt_km": 677.894035311565,
        "timestamp": "2025-12-17T09:00:17.533200+00:00",
        "meta_object_name": "IRIDIUM 33 DEB",
        "meta_object_id": "1997-051HN",
        "meta_epoch": "2025-12-16T19:37:02.270496",
        "meta_mean_motion": 14.63402496,
        "meta_eccentricity": 0.00020447,
        "meta_inclination": 86.3799,
        "meta_ra_of_asc_node": 28.7533,
        "meta_arg_of_pericenter": 194.297,
        "meta_mean_anomaly": 165.8185,
        "meta_ephemeris_type": 0,
        "meta_classification_type": "U",
        "meta_norad_cat_id": 34521,
        "meta_element_set_no": 999,
        "meta_rev_at_epoch": 88532,
        "meta_bstar": 0.00063886562,
        "meta_mean_motion_dot": 3.324e-05,
        "meta_mean_motion_ddot": 0,
        "tle_line1": "1 34521U 97051HN  25350.81738739  .00003324  00000+0  63887-3 0  9994",
        "tle_line2": "2 34521  86.3799  28.7533 0002044 194.2970 165.8185 14.63402496885328"
      },
      "geometry": {
        "type": "Point",
        "coordinates": [
          34.03238642647183,
          56.67115234368589
        ]
      }
    },
    {
      "type": "Feature",
      "properties": {
        "norad_id": 34525,
        "name": "IRIDIUM 33 DEB",
        "group": "iridium-33-debris",
        "lat": -74.36152949659295,
        "lon": -122.03706195535244,
        "alt_km": 760.936185397647,
        "timestamp": "2025-12-17T09:00:17.533210+00:00",
        "meta_object_name": "IRIDIUM 33 DEB",
        "meta_object_id": "1997-051HS",
        "meta_epoch": "2025-12-16T03:39:56.355840",
        "meta_mean_motion": 14.42913658,
        "meta_eccentricity": 0.00065914,
        "meta_inclination": 86.3727,
        "meta_ra_of_asc_node": 45.3871,
        "meta_arg_of_pericenter": 87.2888,
        "meta_mean_anomaly": 301.3893,
        "meta_ephemeris_type": 0,
        "meta_classification_type": "U",
        "meta_norad_cat_id": 34525,
        "meta_element_set_no": 999,
        "meta_rev_at_epoch": 88137,
        "meta_bstar": 0.00032204715,
        "meta_mean_motion_dot": 1.096e-05,
        "meta_mean_motion_ddot": 0,
        "tle_line1": "1 34525U 97051HS  25350.15273560  .00001096  00000+0  32205-3 0  9995",
        "tle_line2": "2 34525  86.3727  45.3871 0006591  87.2888 301.3893 14.42913658881371"
      },
      "geometry": {
        "type": "Point",
        "coordinates": [
          -122.03706195535244,
          -74.36152949659295
        ]
      }
    },
    {
      "type": "Feature",
      "properties": {
        "norad_id": 34529,
        "name": "IRIDIUM 33 DEB",
        "group": "iridium-33-debris",
        "lat": 68.40439529165043,
        "lon": -155.80850779572273,
        "alt_km": 747.5402562088802,
        "timestamp": "2025-12-17T09:00:17.533220+00:00",
        "meta_object_name": "IRIDIUM 33 DEB",
        "meta_object_id": "1997-051HW",
        "meta_epoch": "2025-12-16T04:09:03.226464",
        "meta_mean_motion": 14.4061845,
        "meta_eccentricity": 0.00052348,
        "meta_inclination": 86.3638,
        "meta_ra_of_asc_node": 33.9483,
        "meta_arg_of_pericenter": 166.2156,
        "meta_mean_anomaly": 193.9188,
        "meta_ephemeris_type": 0,
        "meta_classification_type": "U",
        "meta_norad_cat_id": 34529,
        "meta_element_set_no": 999,
        "meta_rev_at_epoch": 88191,
        "meta_bstar": 0.00010343684,
        "meta_mean_motion_dot": 3.5e-06,
        "meta_mean_motion_ddot": 0,
        "tle_line1": "1 34529U 97051HW  25350.17295401  .00000350  00000+0  10344-3 0  9991",
        "tle_line2": "2 34529  86.3638  33.9483 0005234 166.2156 193.9188 14.40618450881919"
      },
      "geometry": {
        "type": "Point",
        "coordinates": [
          -155.80850779572273,
          68.40439529165043
        ]
      }
    },
    {
      "type": "Feature",
      "properties": {
        "norad_id": 34538,
        "name": "IRIDIUM 33 DEB",
        "group": "iridium-33-debris",
        "lat": -17.397279050123625,
        "lon": 2.3571642165704403,
        "alt_km": 734.7381993181107,
        "timestamp": "2025-12-17T09:00:17.533230+00:00",
        "meta_object_name": "IRIDIUM 33 DEB",
        "meta_object_id": "1997-051JF",
        "meta_epoch": "2025-12-16T12:08:56.673600",
        "meta_mean_motion": 14.42671094,
        "meta_eccentricity": 0.00324408,
        "meta_inclination": 86.2768,
        "meta_ra_of_asc_node": 3.9067,
        "meta_arg_of_pericenter": 315.1115,
        "meta_mean_anomaly": 197.0404,
        "meta_ephemeris_type": 0,
        "meta_classification_type": "U",
        "meta_norad_cat_id": 34538,
        "meta_element_set_no": 999,
        "meta_rev_at_epoch": 87810,
        "meta_bstar": 0.00069604721,
        "meta_mean_motion_dot": 2.347e-05,
        "meta_mean_motion_ddot": 0,
        "tle_line1": "1 34538U 97051JF  25350.50621150  .00002347  00000+0  69605-3 0  9994",
        "tle_line2": "2 34538  86.2768   3.9067 0032440 315.1115 197.0404 14.42671094878104"
      },
      "geometry": {
        "type": "Point",
        "coordinates": [
          2.3571642165704403,
          -17.397279050123625
        ]
      }
    }
  ]
}